{"type":"Topology","arcs":[[[86332,16191],[120,-121],[15,14],[1,-30],[35,12],[22,-38],[9,-41],[-16,-56],[-7,-5],[32,-30],[4,-22],[18,-134],[8,-156],[-9,-32],[-130,-99],[-228,-249],[-25,-15],[-199,-26],[-54,11],[-32,42],[-112,3],[-62,-22],[-198,213],[-8,29],[7,32],[181,224],[20,58],[7,-19],[51,28],[111,151],[50,85],[69,59],[20,63],[215,101],[76,-41],[9,11]],[[78290,36344],[121,11],[143,31],[44,1],[22,-10],[8,-9]],[[78628,36368],[54,-53],[29,-14],[5,-58]],[[78716,36243],[1,-14],[5,-13]],[[78722,36216],[6,-17]],[[78728,36199],[2,-3],[51,-84],[82,-46],[15,38],[35,6],[67,40],[10,25],[-3,67],[22,15],[45,-18],[41,2],[26,18],[-1,32],[45,36],[39,62],[60,9],[11,-23],[79,-10],[34,-50],[24,-62],[31,-27],[43,-20],[27,43],[24,16],[26,-10],[10,-57],[34,-72],[113,-70],[45,-5],[1,0]],[[79766,36051],[46,-18]],[[79812,36033],[37,-14],[21,3]],[[79870,36022],[3,0]],[[79873,36022],[106,14],[83,-4],[67,-23],[106,-59],[87,-11],[-142,-463],[-151,-560],[-93,-383],[-434,5],[-2,-757],[-498,-10],[-433,8],[-7,58],[-19,0],[9,31],[-12,-15],[-21,4],[-9,31],[-23,1],[5,12],[12,0],[-1,15],[-11,21],[-17,0],[-15,22],[11,5],[21,-15],[1,17],[-48,45],[-6,-3],[5,-22],[-26,18],[3,-14],[-23,-7],[9,-11],[-3,-12],[-22,-35],[-11,3],[-19,-22],[-13,28],[-59,-16],[-14,37],[15,47],[-12,-9],[-16,28],[-16,84],[4,18],[-29,1],[-10,-31],[-13,0],[-7,31],[-15,18],[0,24],[-10,7],[-12,35],[-40,26],[-20,-11],[-32,17],[-5,-26],[-18,9],[-31,-5],[-19,-50],[-34,13],[-15,20],[-55,-2],[-13,44],[13,35],[-13,23],[-26,6],[-11,13],[6,88],[-14,-1],[-6,32],[-34,10],[-33,32],[-15,-1],[-14,29],[-21,-3],[-7,13],[-24,4],[-2,19],[-14,7],[-18,29],[3,36],[-8,20],[-32,-14],[-10,57],[27,506],[-12,141],[4,119],[-16,123],[7,182],[-8,215],[4,-1]],[[77589,35962],[98,-15],[35,-13]],[[77722,35934],[166,-60],[10,90],[-14,190],[-11,33],[130,41],[113,142],[75,58]],[[78191,36428],[6,5],[17,-23],[30,-20]],[[78244,36390],[16,-10],[30,-36]],[[74528,35907],[-196,-115],[124,-414],[-164,-506],[-24,-155],[-183,-624],[-70,-206],[-62,8],[-10,-22],[-36,-10],[-9,-16],[-6,-51],[4,-17],[-13,7],[-83,-54],[19,-27],[-14,-8],[-14,-38],[-29,70],[-33,12],[-16,17],[-36,77],[-104,91],[-1,29],[-65,79],[-91,91],[-40,9],[-36,55],[-20,5],[-34,-17],[72,814],[-2,49],[31,293],[11,184],[2,289],[18,47],[-15,47],[-3,158],[-27,183],[-44,145],[-154,405],[-44,-66],[-25,0],[-28,24],[-11,220],[-44,10],[-16,41],[15,83],[-4,24],[12,41],[-3,62],[-17,14],[-7,106],[24,120],[-15,90],[16,27],[-1,25],[-5,59],[-11,30],[32,83],[3,30],[-10,67],[1,83],[12,75],[-9,51],[23,486],[-11,22],[6,38],[305,245],[74,49],[60,59],[631,-404],[134,-97],[215,-131],[165,-119],[122,-64],[174,-122],[22,-5],[12,-18],[-206,-1183],[-238,-939]],[[83824,45945],[183,-663],[-97,-331],[217,28],[0,-98],[-52,-238],[-14,-147],[-22,-57],[3,-78],[-10,-32],[-132,-1060],[-163,-1075],[-626,-587],[-29,-23],[-15,8],[-118,-132],[-17,-6],[-79,-81],[-1081,292],[-37,21],[-41,1],[-74,26],[-69,10],[-71,35],[-8,-8],[-169,40],[-112,38],[-120,-12],[-136,24],[-113,54],[-121,30],[-128,76],[-84,6],[-124,49],[-325,91],[-96,36],[-60,8],[-98,35],[-297,71],[-271,78],[-210,44],[-28,16],[-9,-7],[-304,90],[-10,332],[8,158],[10,23],[19,6],[19,-9],[43,53],[19,7],[19,0],[-1,-24],[23,-27],[10,37],[15,13],[21,-1],[-11,26],[10,15],[26,4],[-1,18],[-20,13],[18,31],[19,-13],[8,11],[-14,32],[11,22],[-10,27],[24,9],[7,18],[-22,2],[10,15],[-27,21],[27,18],[-35,28],[-7,-12],[-6,4],[-1,13],[4,39],[8,-4],[4,21],[21,19],[6,42],[6,-10],[5,15],[2,-17],[17,14],[14,-14],[-4,-15],[39,14],[1,-22],[11,-7],[28,9],[22,31],[1,-19],[17,20],[10,-11],[10,5],[-4,22],[18,8],[17,-40],[1,49],[18,12],[10,20],[-11,13],[19,3],[20,-13],[4,17],[-8,23],[20,13],[-3,11],[13,7],[2,-9],[8,17],[3,-17],[11,13],[15,-9],[-2,37],[38,54],[14,-10],[-2,18],[21,27],[13,-19],[37,15],[3,-22],[29,14],[0,18],[26,2],[33,23],[0,-17],[-9,-1],[0,-10],[9,-6],[24,14],[0,-17],[7,14],[7,-4],[-7,-18],[13,-8],[-1,-28],[17,21],[28,-6],[-7,19],[23,0],[1,27],[26,44],[-15,0],[0,14],[13,16],[25,-12],[11,7],[2,-15],[16,-5],[9,11],[9,-10],[-2,22],[24,15],[-4,-20],[14,-10],[-3,-14],[17,-5],[1,20],[25,5],[22,-30],[4,23],[16,-14],[33,56],[32,-33],[12,9],[3,19],[14,-5],[1,16],[10,-4],[-3,-37],[29,6],[5,-12],[23,23],[16,-5],[-5,-22],[18,8],[0,-13],[14,-2],[-2,39],[3,-11],[19,1],[9,-13],[3,14],[8,-11],[11,11],[11,-10],[3,-21],[23,1],[-12,9],[3,12],[33,-29],[-8,-11],[9,-5],[-11,-8],[12,-10],[-3,-13],[16,5],[13,30],[38,17],[33,-45],[19,1],[11,36],[9,-11],[13,29],[10,-18],[5,20],[13,-5],[11,16],[12,-7],[5,18],[-7,13],[58,29],[-5,20],[-9,-16],[-15,17],[13,15],[-15,19],[28,26],[5,25],[8,-7],[2,13],[17,1],[17,41],[-7,16],[23,-4],[4,-9],[33,10],[16,-14],[-3,-19],[5,-7],[15,10],[-1,12],[15,-23],[10,13],[13,-6],[-1,21],[9,-1],[53,-45],[-7,-10],[4,-20],[-14,-14],[24,-19],[5,25],[13,-4],[-2,17],[34,0],[4,31],[10,-18],[22,18],[-26,13],[11,11],[-15,8],[29,18],[-8,17],[14,-6],[-3,23],[-16,-2],[7,26],[-10,41],[5,11],[18,0],[-7,18],[8,4],[-16,14],[12,12],[-13,8],[-1,23],[-12,0],[-4,16],[-15,8],[9,22],[-5,24],[17,9],[2,21],[11,-6],[5,29],[-26,27],[7,14],[-18,14],[6,26],[46,-1],[10,16],[14,-8],[3,14],[29,-46],[17,-8],[5,25],[22,8],[17,-15],[10,22],[16,-21],[34,-2],[2,11],[13,0],[8,12],[-9,8],[4,22],[39,-17],[1,-24],[11,-8],[6,50],[14,-14],[3,21],[15,-26],[13,1],[-2,15],[13,-15],[9,23],[-15,24],[0,20],[4,14],[11,3],[-15,18],[12,8],[-21,11],[-7,25],[14,12],[-7,10],[6,23],[28,7],[-9,26],[19,16],[2,22],[12,-3],[16,21],[16,1],[-5,-13],[11,-3],[-5,-29],[42,-21],[-1,-27],[10,12],[20,-3],[19,-26],[9,23],[11,-1],[6,16],[49,-4],[14,15],[-12,43],[26,-1],[-6,36],[24,5],[-1,8],[-12,-4],[7,19],[-10,5],[12,15],[-15,4],[18,39],[-8,22],[17,-4],[1,17],[32,24],[0,26],[44,5],[13,-9],[43,40],[15,-2],[-8,17],[26,11],[22,-15],[3,25],[9,-10],[20,24],[29,-18],[6,28],[7,-5],[-4,-47],[19,16],[4,-16],[17,-2],[20,21],[-6,17],[23,-26],[2,48],[18,15],[-5,14],[13,-14],[8,4],[-8,18],[7,23],[21,3],[-2,-17],[16,-13],[24,48],[31,-7],[47,95],[7,-3],[-4,-23],[39,9],[8,-26],[31,62],[16,-24],[-7,-15],[31,-4],[-11,-40],[32,-7],[-1,36],[21,17],[9,28],[-26,-3],[33,30],[15,30],[18,4],[0,-22],[13,-9],[-9,-15],[12,-19],[20,19],[14,-5],[0,28],[13,-5],[10,9],[7,-12],[9,7],[5,-13],[11,14],[11,-37],[11,12],[24,-31],[14,17],[4,-25],[25,7],[4,14],[-16,13],[10,41],[22,3],[11,24],[13,-8],[12,32],[-14,25],[21,0],[4,11],[-9,13],[14,0],[-11,49],[10,39],[14,11],[-14,9],[-1,13],[13,10],[20,-13],[17,28],[1,24],[8,14],[25,-10],[1,63],[20,17],[10,-14],[32,17],[7,-30],[15,7],[17,-7],[19,15],[-4,38],[15,7],[9,29],[8,-13],[13,5],[17,-13],[11,25],[18,-4],[1,22],[38,6],[2,41],[29,3],[5,20],[20,-5],[14,42],[10,-3],[-1,-17],[19,-10],[1,-34],[16,-14],[10,12],[-2,19],[24,16],[4,15],[30,-20],[43,18],[22,-2],[6,10],[23,-16],[14,16],[14,-15],[13,9],[16,-35],[11,13],[13,-7],[27,20],[12,-46],[40,1],[10,14],[24,-10],[0,-28],[81,5],[-1,-22],[36,-15],[-4,-42],[28,25],[35,-31],[2,19],[12,3],[17,23],[-2,12],[14,-2],[-7,21],[27,-19],[33,1],[35,-72],[16,-5],[7,7],[-14,16],[11,9],[10,-18],[20,23],[12,-22],[29,21],[14,-6],[37,70],[-1,-37],[17,-1],[15,-18],[18,5],[-2,32],[18,27],[1,22],[20,-25],[52,28],[7,-28],[23,-21],[14,61],[12,18],[-4,26],[16,-12],[15,24],[17,4],[7,33],[34,30],[-8,62],[24,0],[7,19],[14,-30]],[[90746,50560],[114,-110],[446,-10],[34,-32],[30,-6],[41,-73],[9,11],[22,-8],[28,11],[12,-13],[21,8],[26,-12],[16,18],[39,-16],[22,-67],[18,-22],[-5,-35],[-17,-22],[6,-32],[18,-25],[41,-21],[8,-19],[-6,-68],[15,-25],[29,-6],[1,-13],[17,-8],[9,-22],[28,26],[31,-2],[7,36],[16,7],[20,-11],[21,-70],[17,-25],[18,-9],[42,7],[59,33],[26,66],[34,29],[46,-67],[14,-118],[43,-20],[25,7],[31,42],[13,92],[23,27],[25,2],[51,-41],[51,-119],[101,-138],[51,-33],[74,18],[40,90],[23,15],[57,5],[85,-46],[55,-174],[-35,-100],[18,-69],[5,-80],[-18,-49],[0,-169],[36,-91],[98,-31],[41,9],[101,-25],[2,-95],[-18,-4],[-12,-19],[-1,-38],[11,-41],[17,-40],[46,-24],[-4,-50],[22,-86],[84,-137],[20,-52],[-3,-93],[-23,-101],[-2,-87],[-9,-39],[-58,-72],[-91,-75],[-34,-64],[-18,-152],[-8,-178],[-42,-30],[-49,-9],[-37,7],[-158,83],[-44,103],[0,179],[-12,91],[-12,36],[-34,42],[-50,19],[-47,-1],[-59,-102],[-32,-24],[-29,-8],[-72,24],[-84,83],[-108,-226],[-92,-219],[2,-22],[16,-14],[65,-112],[16,-646],[-212,-72],[-17,101],[-55,176],[-350,36],[-128,3],[-36,-848],[-1145,61],[-790,-808],[-654,-126],[-314,-48],[-61,37],[-60,10],[-299,365],[-32,28],[-307,-82],[-121,-49],[-187,-256],[-217,-86],[14,59],[-8,324],[-19,48],[-19,131],[-60,194],[-11,65],[-34,84],[0,45],[-31,48],[-17,138],[4,59],[-5,27],[-54,71],[-85,-11],[-56,51],[-53,-5],[-47,-54],[-24,-86],[-37,-17],[-34,7],[-30,-14],[-53,-50],[-9,33],[20,39],[-20,26],[-11,38],[-12,130],[-16,29],[-2,89],[9,38],[26,24],[1,59],[127,86],[5,16],[45,39],[28,51],[99,28],[13,31],[35,36],[24,49],[81,74],[55,19],[47,97],[102,117],[105,71],[77,-9],[27,38],[95,60],[24,33],[22,62],[44,18],[73,61],[4,64],[-14,125],[3,47],[48,0],[5,229],[-1,49],[-52,6],[18,602],[22,-3],[59,-35],[38,-7],[12,507],[-8,308],[-12,-1],[5,413],[-468,4],[-26,-9],[-184,2],[-89,-15],[3,333],[78,1],[34,13],[292,1],[72,10],[39,27],[66,2],[7,7],[-1,106],[283,-235],[232,-207],[195,-1],[56,49],[47,-35],[58,8],[26,-8],[38,-52],[93,5],[100,23],[71,-1],[25,-34],[-1,-78],[47,17],[45,-2],[55,13],[137,91],[110,5],[1,-8],[42,54],[39,29],[31,-13],[116,22],[93,114],[54,20],[221,69],[90,-25],[147,49],[75,-1],[42,22],[28,33],[68,18],[73,39],[56,7],[78,-28],[107,28],[41,89],[135,-114]],[[78628,36368],[-23,26],[-29,21],[-42,12],[-44,-3],[-132,-27],[-114,-7]],[[78191,36428],[-13,13],[-51,2],[-89,-101],[-61,-117],[-106,-38],[20,-169],[-1,-108],[-91,10],[-55,26],[-20,-12],[-2,0]],[[77589,35962],[21,127],[-3,88],[-18,125],[-3,119],[7,424],[13,21],[-6,77],[6,62],[-10,120],[23,91],[1,127],[-15,57],[2,57],[-13,46],[5,126],[11,32],[44,43],[53,107],[17,118],[26,-37],[105,-80],[3,-28],[16,10],[-10,22],[10,9],[16,-31],[10,9],[-12,21],[16,4],[17,-18],[8,9],[3,-25],[16,11],[2,23],[18,9],[-9,-28],[15,-8],[10,16],[48,2],[10,15],[11,0],[13,-10],[4,-21],[34,-9],[-4,-26],[35,-39],[21,-11],[36,12],[8,-21],[21,-7],[8,-15],[24,15],[11,-26],[53,15],[12,-25],[19,28],[19,6],[58,-66],[14,5],[0,22],[13,1],[11,-38],[23,-27],[11,37],[7,1],[1,-20],[16,2],[0,33],[51,35],[34,-26],[-4,50],[20,-21],[43,-8],[1,-17],[30,18],[-3,34],[69,-15],[45,24],[23,-23],[21,4],[15,10],[-8,53],[9,7],[21,-12],[16,22],[4,-31],[8,18],[18,-8],[1,39],[15,8],[3,22],[12,-1],[8,-22],[12,4],[1,25],[14,-1],[11,17],[15,-3],[-3,42],[-14,-3],[-8,15],[11,9],[43,-3],[33,25],[30,-5],[17,-39],[43,35],[9,-6],[-10,-10],[4,-9],[18,9],[3,-8],[-8,-32],[25,10],[13,-7],[40,30],[28,-14],[5,10],[-13,13],[6,10],[41,7],[41,-36],[-3,-62],[23,15],[-6,-40],[31,-13],[5,-19],[11,-6],[4,25],[10,-11],[12,16],[-5,46],[17,3],[19,-22],[11,0],[12,31],[18,-9],[11,52],[13,-12],[15,14],[-8,20],[5,14],[-23,2],[-5,47],[6,13],[36,-10],[5,10],[3,20],[-16,8],[11,8],[-10,10],[-15,-16],[-13,31],[6,25],[24,24],[25,-71],[14,22],[20,-36],[33,11],[11,25],[21,-3],[0,30],[21,-17],[-7,-34],[4,-9],[30,5],[11,19],[7,-25],[-9,-4],[19,-15],[12,35],[-11,26],[14,2],[15,-13],[27,30],[6,24],[-20,11],[4,22],[16,0],[14,24],[-8,24],[28,5],[21,-27],[-4,-18],[53,-48],[65,17],[24,-31],[10,5],[27,-16],[34,29],[31,-21],[17,0],[31,30],[33,-29],[9,10],[34,-5],[34,-41],[15,-5],[16,5],[-8,36],[45,-14],[-3,-15],[24,19],[13,-3],[11,-49],[28,-24],[8,29],[8,7],[7,-15],[20,42],[12,9],[9,1],[24,-29],[6,6],[-10,52],[11,-1],[18,-35],[18,-1],[11,-35],[10,10],[2,-19],[-13,-6],[4,-12],[24,-2],[2,-25],[10,-3],[6,18],[15,-2],[74,-29],[-4,26],[40,38],[17,2],[0,-419],[-16,-91],[-112,-439],[3,-36],[-18,-7],[-62,-246],[-22,-50],[-67,-284],[-16,-21],[-127,-456],[-25,-18],[-6,22],[-18,16],[-46,-23],[-39,23],[-55,3],[-42,24],[-65,14],[-129,-6],[-35,-12]],[[79870,36022],[-58,11]],[[79766,36051],[-51,50],[-59,35],[-61,60],[-25,33],[-7,58],[-15,38],[-23,5],[-27,-41],[-17,-9],[-68,25],[-62,137],[-110,59],[-78,-33],[-66,-104],[-103,3],[-22,-31],[-7,-56],[-15,-36],[-91,-49],[-11,-19],[-15,-4],[-44,23],[-46,-20],[-15,24]],[[78722,36216],[-6,27]],[[13316,82934],[22,-23],[20,-52],[204,-163],[50,-16],[30,-33],[18,-44],[28,-31],[23,-11],[9,-33],[74,-56],[80,-31],[83,-47],[72,29],[76,-3],[15,29],[22,2],[35,-82],[48,-27],[9,-19],[75,-41],[66,-6],[21,-22],[93,-32],[44,4],[27,-9],[14,-23],[42,-13],[43,-39],[23,7],[-4,-110],[-14,-54],[-89,-147],[-7,-2],[4,11],[-33,-45],[-9,3],[-4,-16],[21,-97],[105,-120],[26,-116],[-12,-26],[-57,-29],[-48,-76],[-41,-28],[-29,-35],[-15,-44],[97,-2],[54,10],[22,-71],[3,-59],[20,-40],[-3,-27],[16,-66],[-1,-64],[-14,-37],[-17,-11],[1,-57],[-25,-75],[0,-44],[-19,-31],[2,-43],[46,-58],[14,-64],[10,-9],[5,-36],[-13,-35],[6,-42],[-5,-47],[7,-12],[74,-23],[17,-54],[60,-17],[14,-11],[9,-27],[26,-1],[67,-31],[88,-103],[134,-73],[84,-76],[85,-38],[40,-3],[81,4],[29,21],[-1,-145],[-28,-446],[9,-21],[-18,-67],[0,-35],[10,-21],[46,-36],[14,-26],[21,-7],[-42,-69],[8,-36],[-9,-42],[28,-57],[-34,-107],[18,-34],[-13,-65],[21,-12],[19,8],[5,-26],[24,-18],[-20,-130],[48,-27],[5,-28],[32,-9],[-28,-22],[48,-33],[-3,-19],[-29,0],[28,-59],[27,-26],[234,-460],[138,-175],[93,-167],[17,-89],[-8,-31],[22,-80],[18,-28],[39,-22],[22,0],[24,-72],[30,13],[13,31],[20,-1],[1,-38],[17,-43],[25,-8],[12,9],[-21,25],[29,57],[34,-3],[38,-29],[9,44],[-7,42],[-58,65],[40,359],[-10,46],[-62,38],[-33,-4],[-25,13],[-16,25],[-20,-23],[1,-37],[-23,31],[3,32],[-33,135],[12,27],[-8,72],[-25,10],[-60,-19],[-31,8],[25,47],[2,47],[-27,54],[-4,38],[19,33],[42,39],[27,56],[3,84],[-24,60],[-75,-5],[10,76],[-19,51],[-19,7],[-51,-8],[-17,16],[11,60],[18,4],[6,12],[-28,38],[13,54],[31,46],[-12,46],[88,-43],[30,-49],[38,6],[5,50],[18,17],[21,-21],[39,1],[19,-47],[11,-8],[46,14],[42,-57],[15,-30],[-4,-17],[19,-8],[-7,-30],[-20,-1],[-2,-22],[-10,9],[-16,-34],[-21,-15],[-15,-60],[24,-54],[-8,-30],[7,-6],[2,-44],[24,-40],[30,8],[11,-10],[-62,-129],[14,-30],[0,-48],[104,-99],[9,-16],[-7,-29],[28,-3],[56,-31],[42,-63],[59,-62],[10,0],[0,-19],[43,-26],[20,-41],[155,-120],[150,-74],[83,-61],[93,-34],[33,-30],[64,-26],[43,-56],[57,-41],[3,-20],[18,-20],[37,-20],[61,-1],[3,15],[28,27],[7,26],[29,11],[56,-30],[52,0],[8,43],[15,8],[27,-45],[20,7],[4,-30],[26,-7],[23,40],[0,33],[34,23],[-1,37],[18,12],[10,32],[39,34],[10,8],[36,-38],[53,2],[7,-71],[26,-120],[30,-80],[-3,-16],[57,-87],[-15,-44],[15,-9],[16,-44],[11,-44],[0,-58],[21,-27],[13,-48],[25,-31],[-38,-9],[-10,-70],[-24,16],[-25,-22],[-81,26],[-66,-8],[-128,67],[-47,-47],[-45,-11],[-22,46],[-57,18],[-41,-20],[-41,48],[-30,-23],[-30,42],[-26,13],[-22,-16],[-38,-82],[-34,-18],[-2,-138],[-12,-22],[-68,1],[-36,-17],[-64,3],[-45,-38],[-19,-4],[-28,28],[-26,54],[-33,9],[-43,39],[-99,18],[-158,-17],[-59,-20],[-37,-25],[-35,-90],[-1,-53],[15,-60],[-6,-37],[-16,-1],[-19,19],[-24,54],[-85,-8],[-32,9],[-45,35],[-20,-14],[-13,-58],[-60,-31],[-6,-12],[-143,85],[-275,221],[-83,35],[-284,56],[-58,0],[-28,27],[-21,5],[-159,-7],[-151,31],[-49,-2],[-10,11],[-216,-8],[-47,11],[-14,14],[-95,-17],[-62,10],[-32,-8],[-88,29],[-106,0],[-312,47],[-12,13],[-18,-4],[-5,17],[-183,152],[-13,-19],[-28,-4],[-7,10],[15,17],[-12,23],[-121,43],[-21,20],[-4,40],[-103,47],[-32,55],[-55,15],[-9,14],[-4,37],[-36,51],[-50,63],[-68,44],[-15,35],[-63,3],[-38,-17],[-30,0],[-111,19],[-47,-19],[-76,30],[-26,60],[-19,12],[-42,-20],[-99,-85],[-52,-127],[-26,-39],[-39,24],[-70,-14],[-40,4],[-34,24],[-61,-39],[-39,-12],[-75,31],[-51,-4],[-31,-57],[-87,-102],[-10,-8],[-4,12],[-16,-6],[4,-16],[-36,-80],[-74,-108],[-146,-126],[-1029,1134],[8,21],[33,-11],[50,46],[-24,57],[27,38],[3,67],[18,20],[-1,-25],[19,-33],[21,1],[340,-468],[78,-89],[41,-60],[241,13],[174,-4],[123,21],[64,-1],[-5,37],[14,19],[-3,23],[-24,24],[2,62],[21,137],[27,-6],[4,175],[-42,3],[-46,62],[-107,74],[-28,32],[-124,100],[-57,78],[-73,121],[1,211],[4,46],[24,37],[12,49],[51,123],[90,167],[39,37],[19,2],[20,42],[13,8],[19,67],[66,106],[20,57],[105,132],[-9,30],[-33,50],[-67,74],[-68,18],[-143,-56],[-84,123],[17,25],[38,-2],[3,11],[-20,19],[-1,33],[8,18],[20,7],[15,64],[-21,56],[8,37],[16,-18],[3,-24],[19,-17],[21,21],[28,2],[7,56],[-541,959],[36,27],[4,30],[31,4],[12,25],[23,12],[11,25],[26,16],[10,55],[-8,39],[5,42],[-15,44],[14,15],[-206,275],[-10,50],[-37,88],[-7,77],[-14,38],[-62,72],[-4,85],[-98,245],[37,-2],[31,-19],[19,21],[99,11],[75,107],[56,-15],[56,21],[19,55],[70,74],[138,15],[101,-42],[69,-78],[58,-28],[85,36],[69,106],[23,12],[25,-15],[24,1],[5,42],[18,10],[43,-17],[47,3],[26,-33],[89,-31],[15,26],[13,1],[56,-31],[36,-47],[30,-14],[11,23],[21,13],[39,78],[-8,24],[29,37],[16,48],[16,13],[8,39],[62,69],[46,81],[40,7],[33,26],[21,-6],[12,16],[38,13],[137,-24],[101,-67],[83,-22],[100,4]],[[11015,84296],[17,-118],[-30,-41],[18,-114],[-20,-97],[21,-38],[2,-48],[10,-23],[15,-10],[1,-25],[-27,-25],[-24,-48],[3,-63],[-33,-44],[-35,-22],[-23,39],[-22,-16],[-28,4],[-21,-13],[3,-84],[-8,-30],[-22,-5],[-50,75],[-22,-11],[-14,-52],[18,-58],[23,-41],[1,-46],[19,-53],[-94,-72],[2,-20],[29,-25],[-3,-23],[-27,-5],[-54,-41],[-54,12],[-40,-67],[-10,-120],[-18,-25],[-34,-22],[-5,-15],[7,-22],[30,-38],[3,-20],[-28,-69],[-1,-52],[-766,278],[-120,90],[-49,66],[-36,65],[-26,103],[-14,20],[-53,3],[-20,-15],[-21,-27],[-12,-82],[-93,-67],[-79,52],[-29,5],[-33,-6],[-45,-52],[-94,33],[-109,21],[-28,94],[-47,30],[-97,-30],[-102,-102],[-40,-27],[-321,338],[-106,27],[-115,-3],[-173,59],[-26,-3],[-134,41],[-11,17],[-50,10],[-47,50],[-72,118],[-87,78],[-47,61],[-316,1],[-37,100],[-33,137],[125,0],[0,156],[-24,-25],[-21,1],[-116,71],[-24,102],[-25,31],[-61,21],[-46,-29],[-86,50],[-363,394],[-12,42],[-11,-24],[-23,25],[13,28],[0,31],[13,43],[78,44],[38,113],[20,-7],[29,25],[57,-10],[0,50],[-9,29],[12,32],[28,30],[30,14],[25,-5],[7,13],[32,-13],[62,21],[-13,87],[-33,103],[-32,49],[-53,37],[-31,46],[-1,88],[-18,48],[-52,53],[-48,33],[-186,942],[53,21],[13,55],[43,68],[27,17],[36,-16],[12,64],[12,21],[13,-1],[15,-20],[23,4],[11,44],[-5,86],[75,70],[14,50],[2,46],[42,41],[26,73],[15,-2],[14,-51],[23,6],[18,66],[36,60],[-7,66],[21,0],[27,-35],[18,10],[13,36],[3,80],[-17,76],[4,27],[16,27],[9,112],[78,-167],[77,-133],[23,-60],[84,-155],[42,-61],[21,-69],[57,-127],[24,-33],[13,-46],[26,-27],[139,-252],[25,-66],[113,-174],[72,-149],[24,-123],[12,-3],[7,-49],[72,-171],[21,-11],[18,-33],[49,-221],[135,-318],[27,-46],[87,-95],[54,-97],[95,-124],[30,-68],[39,-31],[21,2],[49,-96],[92,-100],[11,57],[19,22],[2,73],[7,10],[44,8],[1,25],[42,18],[9,21],[26,7],[45,40],[132,67],[25,33],[22,117],[14,29],[90,-19],[18,20],[37,51],[22,52],[22,18],[20,52],[0,27],[20,24],[74,21],[15,14],[42,90],[-15,41],[3,20],[15,16],[17,-14],[10,-27],[21,-3],[27,-28],[26,-45],[11,0],[28,25],[17,-37],[18,11],[6,-14],[34,4],[87,-88],[13,-2],[71,35],[48,0],[45,-16],[65,1],[12,-20],[27,13],[146,4],[178,-45],[40,0],[99,-84],[5,-43],[17,-19],[59,6],[30,-9],[31,-27],[18,20],[38,10],[9,-55],[21,-51],[-4,-53],[48,18],[68,3],[107,-71],[49,-3],[-4,-56],[30,-48],[8,-88],[34,-35],[-4,-13],[24,-36],[-8,-56],[6,-32],[16,-12],[-6,8],[22,1],[14,-25],[74,-19],[19,-25],[8,-38],[25,-17],[-22,-76],[4,-10],[19,3],[10,-17],[6,-43],[-3,-144],[23,-36],[-8,-36],[-26,-2],[-64,-43],[0,-44]],[[99834,105],[-113,-75],[-25,75],[-49,-45],[-42,-60],[-46,45],[6,66],[98,89],[-1,145],[19,38],[24,94],[60,113],[-11,65],[-83,4],[-25,15],[-150,145],[73,100],[38,69],[345,-20],[-1,-37],[31,-23],[-7,-32],[24,-47],[-3,-41],[-57,-71],[20,-79],[-8,-64],[15,-54],[-22,-125],[-56,-24],[-88,-78],[15,-25],[16,-117],[25,-22],[-22,-24]],[[5396,93844],[32,-41],[112,-574],[-43,-23],[-42,-7],[-34,-307],[-275,-27],[107,305],[1,53],[-72,0],[-3,-75],[-87,4],[-98,-50],[-48,13],[-18,75],[-62,51],[-147,-41],[80,291],[-346,547],[279,276],[319,225],[-1,53],[21,81],[86,27],[239,-856]],[[4480,95648],[-8,-182],[-41,-17],[-111,73],[-87,128],[-98,-100],[-134,-112],[-84,11],[-116,94],[-146,-82],[-3,-165],[-99,-90],[-109,130],[-63,23],[-3,112],[35,67],[-2,269],[-31,54],[-18,353],[15,112],[86,-15],[49,42],[19,96],[121,-7],[19,99],[69,-34],[-20,182],[-103,-26],[20,87],[-131,16],[-89,-119],[-65,50],[-108,-50],[-147,-158],[-211,-67],[-37,-64],[-53,37],[-13,22],[-95,4],[-2,33],[-24,37],[60,31],[-1,97],[35,10],[-8,101],[-101,187],[0,85],[-55,-27],[-135,46],[-146,-22],[-9,97],[85,60],[-20,255],[-102,196],[54,-4],[27,91],[-18,124],[-97,101],[-72,-100],[-146,-124],[-90,53],[-46,-31],[-142,0],[13,283],[-57,103],[-50,-56],[-131,-61],[-110,92],[-108,8],[-81,130],[-61,12],[-93,130],[-248,-2],[-66,179],[-125,-148],[-86,36],[-34,-69],[-83,-49],[-30,17],[0,-68],[-46,26],[-20,-114],[-156,18],[-37,75],[-54,76],[-71,79],[-1,72],[127,158],[175,140],[76,95],[121,83],[96,138],[139,-10],[10,237],[-32,157],[13,263],[373,178],[40,74],[201,-206],[760,-902],[726,-818],[510,-626],[1362,-1429],[-4,-45],[-47,-16],[-17,-22],[11,-42],[85,-161],[8,-75],[-253,-9]]],"transform":{"scale":[0.000045535915591983554,0.000034316770913049185],"translate":[101.20357211310052,-5.743445241654527]},"objects":{"batas_pbph":{"type":"GeometryCollection","geometries":[{"arcs":[[[0]],[[1,2,3,4,5,6,7,8,9,10,11,12,13]],[[14]],[[15]]],"type":"MultiPolygon","properties":{"NAMOBJ":"PT Inhutani Lampung"}},{"arcs":[[16]],"type":"Polygon","properties":{"NAMOBJ":"PT Silva Inhutani Lampung"}},{"arcs":[[-3,17,-13,18,-11,19,-9,20,-7,21,-5,22]],"type":"Polygon","properties":{"NAMOBJ":"PT BUDI LAMPUNG SEJAHTERA"}},{"arcs":[[23]],"type":"Polygon","properties":{"NAMOBJ":"PT ANUGERAH PRATAMA INSPIRASI"}},{"arcs":[[24]],"type":"Polygon","properties":{"NAMOBJ":"PT BAT"}},{"arcs":[[25]],"type":"Polygon","properties":{"NAMOBJ":"PT PENYELAMAT ALAM NUSANTARA"}},{"arcs":[[[26]],[[27]]],"type":"MultiPolygon","properties":{"NAMOBJ":"PT SIPEF"}}]}}}