{"type": "FeatureCollection", "features": [{"type": "Feature", "geometry": {"type": "Point", "coordinates": [105.72516, -4.37509]}, "properties": {"acq_date": "2026-10-01", "acq_time": "109", "satellite": "Terra", "instrument": "MODIS", "confidence": "medium", "frp": "13.32", "daynight": "D", "provinsi": "Lampung", "kph": "Luar KPH", "pbph": "Luar PBPH", "fungsi_kawasan": "Areal Penggunaan Lain"}}, {"type": "Feature", "geometry": {"type": "Point", "coordinates": [105.42803, -6.09811]}, "properties": {"acq_date": "2026-10-01", "acq_time": "111", "satellite": "Terra", "instrument": "MODIS", "confidence": "medium", "frp": "20.54", "daynight": "D", "provinsi": "Lampung", "kph": "Luar KPH", "pbph": "Luar PBPH", "fungsi_kawasan": "Cagar Alam"}}]}